NORAD_CAT_ID,OBJECT_NAME,OBJECT_TYPE,EPOCH,MEAN_MOTION,ECCENTRICITY,INCLINATION,RA_OF_ASC_NODE,ARG_OF_PERICENTER,MEAN_ANOMALY,BSTAR,MEAN_MOTION_DOT,MEAN_MOTION_DDOT,TLE_LINE0,TLE_LINE1,TLE_LINE2,SEMIMAJOR_AXIS,PERIOD,APOGEE,PERIGEE,DECAYED
53568.0,STARLINK-4583,PAYLOAD,2022-12-26 01:35:32,15.08837707,0.0001946,53.2158,264.6226,49.2693,310.8468,-1.1539e-05,-4.72e-06,0.0,0 STARLINK-4583,1 53568U 22101AT  22360.06635007 -.00000472  00000-0 -11539-4 0  9991,2 53568  53.2158 264.6226 0001946  49.2693 310.8468 15.08837707 19875,6917.887,95.438,541.099,538.406,0.0
53568.0,STARLINK-4583,PAYLOAD,2022-12-26 23:50:55,15.0884762,0.0002113,53.2163,260.4601,44.1403,315.9757,2.7352e-05,1.47e-06,0.0,0 STARLINK-4583,1 53568U 22101AT  22360.99370158  .00000147  00000-0  27352-4 0  9993,2 53568  53.2163 260.4601 0002113  44.1403 315.9757 15.08847620 20012,6917.857,95.437,541.184,538.26,0.0
53568.0,STARLINK-4583,PAYLOAD,2022-12-27 10:58:37,15.08847968,0.000198,53.2163,258.378,47.3959,312.72,8.735e-05,1.103e-05,0.0,0 STARLINK-4583,1 53568U 22101AT  22361.45737720  .00001103  00000-0  87350-4 0  9994,2 53568  53.2163 258.3780 0001980  47.3959 312.7200 15.08847968 20774,6917.856,95.437,541.091,538.351,0.0
53568.0,STARLINK-4583,PAYLOAD,2022-12-27 17:20:09,15.088339499999998,0.0002037,53.2178,257.1894,44.3309,315.7846,0.00035855,5.422e-05,0.0,0 STARLINK-4583,1 53568U 22101AT  22361.72233564  .00005422  00000-0  35855-3 0  9991,2 53568  53.2178 257.1894 0002037  44.3309 315.7846 15.08833950 20813,6917.899,95.438,541.173,538.355,0.0
53568.0,STARLINK-4583,PAYLOAD,2022-12-27 22:06:18,15.08844281,0.000206,53.217,256.2967,51.1367,308.9808,0.00041881,6.384e-05,0.0,0 STARLINK-4583,1 53568U 22101AT  22361.92104607  .00006384  00000-0  41881-3 0  9992,2 53568  53.2170 256.2967 0002060  51.1367 308.9808 15.08844281 20150,6917.8669999999975,95.437,541.1569999999998,538.307,0.0
53568.0,STARLINK-4583,PAYLOAD,2022-12-28 20:21:43,15.08846513,0.0001803,53.2161,252.1332,52.1893,307.9262,-9.1967e-05,-1.752e-05,0.0,0 STARLINK-4583,1 53568U 22101AT  22362.84841919 -.00001752  00000-0 -91967-4 0  9995,2 53568  53.2161 252.1332 0001803  52.1893 307.9262 15.08846513 20984,6917.86,95.437,540.9730000000002,538.4780000000002,0.0
53568.0,STARLINK-4583,PAYLOAD,2022-12-29 02:43:16,15.08840123,0.0001826,53.2162,250.9443,47.12600000000001,312.9885,-0.00014303,-2.564e-05,0.0,0 STARLINK-4583,1 53568U 22101AT  22363.11338398 -.00002564  00000-0 -14303-3 0  9998,2 53568  53.2162 250.9443 0001826  47.1260 312.9885 15.08840123 20338,6917.88,95.438,541.008,538.482,0.0
53568.0,STARLINK-4583,PAYLOAD,2022-12-30 02:34:03,15.08844457,0.0001906999999999,53.2168,246.4827,50.0538,310.0621,-0.00019054,-3.32e-05,0.0,0 STARLINK-4583,1 53568U 22101AT  22364.10699064 -.00003320  00000-0 -19054-3 0  9997,2 53568  53.2168 246.4827 0001907  50.0538 310.0621 15.08844457 21175,6917.8669999999975,95.437,541.0509999999998,538.413,0.0
53568.0,STARLINK-4583,PAYLOAD,2022-12-30 16:52:31,15.08836249,0.0001901,53.2167,243.8067,46.5478,313.5672,0.00016757,2.380000000000001e-05,0.0,0 STARLINK-4583,1 53568U 22101AT  22364.70314227  .00002380  00000-0  16757-3 0  9998,2 53568  53.2167 243.8067 0001901  46.5478 313.5672 15.08836249 20575,6917.892,95.438,541.072,538.442,0.0
53568.0,STARLINK-4583,PAYLOAD,2022-12-31 02:24:49,15.08849082,0.0001945,53.2168,242.0223,46.9911,313.1244,0.00023833,3.508e-05,0.0,0 STARLINK-4583,1 53568U 22101AT  22365.10057191  .00003508  00000-0  23833-3 0  9993,2 53568  53.2168 242.0223 0001945  46.9911 313.1244 15.08849082 20632,6917.853,95.437,541.063,538.372,0.0
53568.0,STARLINK-4583,PAYLOAD,2022-12-31 08:46:22,15.08840006,0.0002026999999999,53.2168,240.8328,48.4749,311.6417,0.00032316,4.859e-05,0.0,0 STARLINK-4583,1 53568U 22101AT  22365.36553336  .00004859  00000-0  32316-3 0  9999,2 53568  53.2168 240.8328 0002027  48.4749 311.6417 15.08840006 21365,6917.88,95.438,541.148,538.3430000000002,0.0
53568.0,STARLINK-4583,PAYLOAD,2023-01-01 00:40:14,15.08836781,0.0002136,53.2161,237.8598,41.6563,318.4591,-5.6993e-05,-1.195e-05,0.0,0 STARLINK-4583,1 53568U 22101AT  23001.02794965 -.00001195  00000-0 -56993-4 0  9995,2 53568  53.2161 237.8598 0002136  41.6563 318.4591 15.08836781 20770,6917.89,95.438,541.2330000000002,538.278,0.0
53568.0,STARLINK-4583,PAYLOAD,2023-01-01 08:37:11,15.08829053,0.0002002,53.2164,236.3726,47.2499,312.8662,-8.3735e-05,-1.62e-05,0.0,0 STARLINK-4583,1 53568U 22101AT  23001.35915552 -.00001620  00000-0 -83735-4 0  9995,2 53568  53.2164 236.3726 0002002  47.2499 312.8662 15.08829053 20829,6917.9140000000025,95.438,541.164,538.394,0.0
53568.0,STARLINK-4583,PAYLOAD,2023-01-01 18:09:30,15.08832954,0.0002049,53.2163,234.5892,49.4744,310.6427,-0.00020743,-3.587e-05,0.0,0 STARLINK-4583,1 53568U 22101AT  23001.75659902 -.00003587  00000-0 -20743-3 0  9996,2 53568  53.2163 234.5892 0002049  49.4744 310.6427 15.08832954 21572,6917.901999999999,95.438,541.184,538.349,0.0
53568.0,STARLINK-4583,PAYLOAD,2023-01-02 08:27:57,15.08841308,0.0002039,53.2166,231.9127,49.648,310.469,-0.00016703,-2.946e-05,0.0,0 STARLINK-4583,1 53568U 22101AT  23002.35275357 -.00002946  00000-0 -16703-3 0  9990,2 53568  53.2166 231.9127 0002039  49.6480 310.4690 15.08841308 20971,6917.876,95.437,541.1519999999998,538.331,0.0
53568.0,STARLINK-4583,PAYLOAD,2023-01-02 21:11:02,15.08841961,0.0001899,53.2164,229.5334,45.9972,314.1177,-6.9885e-05,-1.4e-05,0.0,0 STARLINK-4583,1 53568U 22101AT  23002.88266880 -.00001400  00000-0 -69885-4 0  9993,2 53568  53.2164 229.5334 0001899  45.9972 314.1177 15.08841961 21742,6917.874,95.437,541.053,538.4259999999998,0.0
53568.0,STARLINK-4583,PAYLOAD,2023-01-03 01:57:11,15.08882528,0.0002177999999999,53.2162,228.6418,42.8021,317.314,-0.00052258,-8.606e-05,0.0,0 STARLINK-4583,1 53568U 22101AT  23003.08138068 -.00008606  00000-0 -52258-3 0  9992,2 53568  53.2162 228.6418 0002178  42.8021 317.3140 15.08882528 21081,6917.75,95.435,541.122,538.109,0.0
53568.0,STARLINK-4583,PAYLOAD,2023-01-03 08:18:44,15.08836937,0.0002023,53.2161,227.4522,47.7582,312.3581,0.0001174,1.581e-05,0.0,0 STARLINK-4583,1 53568U 22101AT  23003.34634652  .00001581  00000-0  11740-3 0  9995,2 53568  53.2161 227.4522 0002023  47.7582 312.3581 15.08836937 21120,6917.89,95.438,541.154,538.355,0.0
53568.0,STARLINK-4583,PAYLOAD,2023-01-03 17:51:03,15.08828643,0.0002009999999999,53.2162,225.6681,48.5544,311.562,0.00010655,1.407e-05,0.0,0 STARLINK-4583,1 53568U 22101AT  23003.74379373  .00001407  00000-0  10655-3 0  9996,2 53568  53.2162 225.6681 0002010  48.5544 311.5620 15.08828643 21186,6917.915,95.438,541.1709999999998,538.39,0.0
53568.0,STARLINK-4583,PAYLOAD,2023-01-04 08:09:32,15.08835288,0.0001991,53.2161,222.9913,48.3536,311.7626,6.1355e-05,6.88e-06,0.0,0 STARLINK-4583,1 53568U 22101AT  23004.33995406  .00000688  00000-0  61355-4 0  9997,2 53568  53.2161 222.9913 0001991  48.3536 311.7626 15.08835288 21966,6917.895,95.438,541.137,538.382,0.0
53568.0,STARLINK-4583,PAYLOAD,2023-01-05 00:03:22,15.08848684,0.0001988,53.216,220.017,49.9761,310.1406,6.971e-05,8.22e-06,0.0,0 STARLINK-4583,1 53568U 22101AT  23005.00234387  .00000822  00000-0  69710-4 0  9999,2 53568  53.2160 220.0170 0001988  49.9761 310.1406 15.08848684 21370,6917.854,95.437,541.094,538.344,0.0
53568.0,STARLINK-4583,PAYLOAD,2023-01-05 14:21:50,15.08851886,0.000178,53.2161,217.3396,53.2248,306.8908,4.989e-05,5.06e-06,0.0,0 STARLINK-4583,1 53568U 22101AT  23005.59849727  .00000506  00000-0  49890-4 0  9999,2 53568  53.2161 217.3396 0001780  53.2248 306.8908 15.08851886 22152,6917.844,95.437,540.94,538.4780000000002,0.0
53568.0,STARLINK-4583,PAYLOAD,2023-01-06 06:15:42,15.08839282,0.0001673,53.2168,214.3647,22.7561,337.3505,4.0062e-05,3.500000000000001e-06,0.0,0 STARLINK-4583,1 53568U 22101AT  23006.26090322  .00000350  00000-0  40062-4 0  9992,2 53568  53.2168 214.3647 0001673  22.7561 337.3505 15.08839282 21567,6917.883000000002,95.438,540.905,538.59,0.0
53568.0,STARLINK-4583,PAYLOAD,2023-01-06 14:12:39,15.08827309,0.0002051,53.2163,212.88,51.5557,308.5619,-0.00010349,-1.934e-05,0.0,0 STARLINK-4583,1 53568U 22101AT  23006.59211994 -.00001934  00000-0 -10349-3 0  9993,2 53568  53.2163 212.8800 0002051  51.5557 308.5619 15.08827309 21611,6917.919,95.438,541.203,538.365,0.0
53568.0,STARLINK-4583,PAYLOAD,2023-01-07 06:06:30,15.08829736,0.0002088,53.2159,209.9067,50.0129,310.1046,-0.00016057,-2.842e-05,0.0,0 STARLINK-4583,1 53568U 22101AT  23007.25452485 -.00002842  00000-0 -16057-3 0  9990,2 53568  53.2159 209.9067 0002088  50.0129 310.1046 15.08829736 22404,6917.911999999998,95.438,541.221,538.332,0.0
53568.0,STARLINK-4583,PAYLOAD,2023-01-07 20:24:59,15.08829793,0.0001895,53.2163,207.2307,48.2606,311.8548,-6.481399999999999e-05,-1.319e-05,0.0,0 STARLINK-4583,1 53568U 22101AT  23007.85068391 -.00001319  00000-0 -64814-4 0  9998,2 53568  53.2163 207.2307 0001895  48.2606 311.8548 15.08829793 21802,6917.911999999998,95.438,541.0880000000002,538.466,0.0
53568.0,STARLINK-4583,PAYLOAD,2023-01-07 22:00:22,15.08829697,0.0001896,53.2163,206.9334,48.533,311.5825,-6.3434e-05,-1.297e-05,0.0,0 STARLINK-4583,1 53568U 22101AT  23007.91692449 -.00001297  00000-0 -63434-4 0  9994,2 53568  53.2163 206.9334 0001896  48.5330 311.5825 15.08829697 22502,6917.911999999998,95.438,541.089,538.465,0.0
53568.0,STARLINK-4583,PAYLOAD,2023-01-08 13:54:13,15.08823572,0.0001883,53.2162,203.9593,46.0039,314.1108,0.00011538,1.548e-05,0.0,0 STARLINK-4583,1 53568U 22101AT  23008.57932754  .00001548  00000-0  11538-3 0  9997,2 53568  53.2162 203.9593 0001883  46.0039 314.1108 15.08823572 22600,6917.931,95.439,541.0980000000002,538.493,0.0
53568.0,STARLINK-4583,PAYLOAD,2023-01-09 13:45:00,15.08837124,0.0001928,53.2167,199.4992,48.7365,311.3792,0.00010108,1.321e-05,0.0,0 STARLINK-4583,1 53568U 22101AT  23009.57292509  .00001321  00000-0  10108-3 0  9996,2 53568  53.2167 199.4992 0001928  48.7365 311.3792 15.08837124 22064,6917.889,95.438,541.0880000000002,538.42,0.0
